
STARLINK-30967          
1 58416U 23180Q   25004.57563505 -.00001013  00000+0 -59964-4 0  9998
2 58416  43.0006 227.8361 0001522 278.3383  81.7287 15.02533538 63032
STARLINK-30955          
1 58417U 23180R   25004.61546385  .00004077  00000+0  31660-3 0  9994
2 58417  43.0003 227.2745 0001594 264.0897  95.9764 15.02551845 63040
STARLINK-30895          
1 58418U 23180S   25004.03048449  .00000903  00000+0  81970-4 0  9993
2 58418  42.9988 230.6377 0001108 284.8405  75.2314 15.02516385 62845
STARLINK-30917          
1 58419U 23180T   25004.58334491  .01601104  00000+0  59787-1 0  9998
2 58419  42.9990 226.8787 0001696 263.4667 138.1614 15.23430806  5739
STARLINK-30899          
1 58420U 23180U   25004.62212059 -.00012956  00000+0 -94511-3 0  9998
2 58420  43.0002 227.3383 0000874 302.1570  57.9187 15.02564197 62932
STARLINK-30902          
1 58421U 23180V   25004.60214423  .00001641  00000+0  13655-3 0  9991
2 58421  43.0020 227.1856 0001323 255.4433 104.6262 15.02530096 62939
STARLINK-30912          
1 58422U 23180W   25004.44010356  .00017825  00000+0  68891-3 0  9996
2 58422  43.0022 173.2477 0001963 238.4866 121.5793 15.25943977 63662
STARLINK-30900          
1 58423U 23180X   25004.29973686 -.00013608  00000+0 -99291-3 0  9999
2 58423  42.9978 229.1746 0000674 328.0339  32.0462 15.02586028 62887
STARLINK-30908          
1 58424U 23180Y   25004.61412403 -.00001333  00000+0 -83713-4 0  9996
2 58424  43.0012 226.3297 0000686 276.2515  83.8249 15.02508214 63050
2023-181A               
1 58425U 23181A   25004.56853095 -.00000026  00000+0  18328-3 0  9994
2 58425  49.9592 105.0678 0013742 100.3310 259.9117 13.41427609 54792
COSMOS 2572             
1 58435U 23182A   25004.32719914  .00002538  18937-5  10023-4 0  9999
2 58435  96.6920 111.7001 0016968 214.9667 145.0495 15.90750424 64460
STARLINK-30869          
1 58437U 23183A   25004.31334498 -.00001774  00000+0 -11630-3 0  9994
2 58437  43.0003 216.5438 0001144 258.7073 101.3641 15.02532087 62120
STARLINK-30969          
1 58438U 23183B   25003.98426913  .00000622  00000+0  61140-4 0  9992
2 58438  43.0026 218.3764 0000824 282.4065  77.6685 15.02533587 62070
STARLINK-30951          
1 58439U 23183C   25004.57591051  .00001333  00000+0  11373-3 0  9997
2 58439  43.0022 215.0738 0001124 259.3174 100.7542 15.02530184 62160
STARLINK-30950          
1 58440U 23183D   25004.36558066  .00053308  00000+0  19934-2 0  9994
2 58440  42.9952 121.8568 0001188 304.4736  55.6003 15.26561384 63234
STARLINK-30942          
1 58441U 23183E   25004.62573652  .00000487  00000+0  51088-4 0  9990
2 58441  43.0034 214.5886 0000928 283.2562  76.8177 15.02535761 62176
STARLINK-30959          
1 58442U 23183F   25004.61908214  .00000748  00000+0  70419-4 0  9995
2 58442  43.0016 214.5413 0001142 260.4460  99.6253 15.02528603 62171
STARLINK-30971          
1 58443U 23183G   25004.56260854  .00002317  00000+0  18665-3 0  9999
2 58443  43.0028 214.9694 0001050 210.6149 149.4632 15.02506410 62165
STARLINK-30963          
1 58444U 23183H   25004.61575116  .00001013  00000+0  90053-4 0  9990
2 58444  43.0016 214.5111 0001097 278.0012  82.0706 15.02531360 62178
STARLINK-30961          
1 58445U 23183J   25004.61242905 -.00000848  00000+0 -47714-4 0  9991
2 58445  43.0032 214.4837 0001240 271.9806  88.0894 15.02524046 62171
STARLINK-30975          
1 58446U 23183K   25003.86240433 -.00000318  00000+0 -84892-5 0  9993
2 58446  43.0003 219.1616 0001155 273.7499  86.3211 15.02541951 62077
STARLINK-30976          
1 58447U 23183L   25004.60244736 -.00006945  00000+0 -49957-3 0  9990
2 58447  42.9970 214.4444 0001443 281.4638  78.6042 15.02536760 62176
STARLINK-30926          
1 58448U 23183M   25004.26670698  .00000705  00000+0  67263-4 0  9990
2 58448  43.0032 216.1505 0001275 248.9297 111.1409 15.02529756 62129
STARLINK-30943          
1 58449U 23183N   25004.20086367 -.00000738  00000+0 -39548-4 0  9992
2 58449  43.0021 191.3762 0001312 277.5387  82.5306 15.02529040 62401
STARLINK-30946          
1 58450U 23183P   25004.58592688  .00012871  00000+0  96594-3 0  9995
2 58450  43.0003 215.1481 0002069 241.2256 118.8378 15.02542238 62168
STARLINK-30944          
1 58451U 23183Q   25004.60908156  .00000828  00000+0  76339-4 0  9995
2 58451  43.0084 214.4618 0000322 321.0338  39.0482 15.02538141 62146
STARLINK-30928          
1 58452U 23183R   25004.60576385  .00002024  00000+0  16493-3 0  9995
2 58452  43.0012 214.4400 0001445 288.6835  71.3850 15.02522050 62177
STARLINK-30957          
1 58453U 23183S   25004.59255578 -.00001120  00000+0 -67872-4 0  9998
2 58453  42.9999 215.1953 0000879 282.4067  77.6677 15.02542832 62165
STARLINK-30966          
1 58454U 23183T   25004.58924855 -.00000129  00000+0  55273-5 0  9999
2 58454  43.0020 215.1691 0001216 256.5332 103.5375 15.02516834 62162
STARLINK-30935          
1 58455U 23183U   25004.56927022  .00013184  00000+0  98916-3 0  9990
2 58455  43.0002 215.0180 0001330 274.1524  85.9166 15.02538013 62165
STARLINK-30960          
1 58456U 23183V   25004.26547493  .00010513  00000+0  68509-3 0  9996
2 58456  43.0012 214.5032 0006297 261.1307  98.8825 15.07959547 62146
STARLINK-30958          
1 58457U 23183W   25004.62019845  .00001271  00000+0  10915-3 0  9991
2 58457  43.0002 214.5458 0001248 273.5798  86.4902 15.02530934 62172
STARLINK-30962          
1 58458U 23183X   25004.26339098  .00001399  00000+0  11859-3 0  9996
2 58458  43.0030 216.1716 0001096 263.0567  97.0151 15.02533399 62125
STARLINK-30977          
1 58459U 23183Y   25004.29998587  .00007510  00000+0  57002-3 0  9995
2 58459  43.0055 216.4366 0002007 267.4873  92.5739 15.02560655 62125
GNOMES-4                
1 58462U 23185A   25004.55044092  .00009285  00000+0  70103-3 0  9991
2 58462  97.5747  72.6452 0015021 307.7136  52.2726 15.02532280 59981
KORSAT 7                
1 58463U 23185B   25004.59309225  .00004670  00000+0  37191-3 0  9991
2 58463  97.6214  73.6832 0018607 333.3464  26.6801 15.00714813 59999
KOYOH                   
1 58464U 23185C   25004.56058322  .00009239  00000+0  57893-3 0  9995
2 58464  97.5963  75.2481 0007656 341.1018  18.9926 15.09551530 60136
BANE                    
1 58465U 23185D   25004.56116422  .00022885  00000+0  75452-3 0  9995
2 58465  97.4026  75.1075 0006651 299.3677  60.6900 15.31434390 60813
UHETSAT                 
1 58466U 23185E   25004.54509816  .00010282  00000+0  45616-3 0  9994
2 58466  97.4191  72.9473 0016622  24.9197 335.2838 15.21646035 60633
LILIUM-1                
1 58467U 23185F   25004.55552756  .00022653  00000+0  84531-3 0  9991
2 58467  97.4004  74.4264 0008797 299.4567  60.5794 15.27376776 60778
SPIRIT                  
1 58468U 23185G   25004.53231762  .00021720  00000+0  75132-3 0  9992
2 58468  97.3997  74.6045 0009312 299.2940  60.7369 15.29868928 60783
ION SCV-015             
1 58469U 23185H   25004.56273107  .00009926  00000+0  41240-3 0  9992
2 58469  97.6237  77.6440 0011799 156.7803 203.3969 15.23961472 60326
ROBUSTA-1E (ENSO)       
1 58470U 23185J   25004.57184901  .00041442  00000+0  11052-2 0  9994
2 58470  97.3985  76.7203 0008532 285.7605  74.2699 15.37994203 60920
HAYASAT-1               
1 58471U 23185K   25004.55643859  .00081900  00000+0  14809-2 0  9991
2 58471  97.3952  78.5231 0006971 277.2197  82.8261 15.49377908 61047
EIRSAT-1                
1 58472U 23185L   25004.55287115  .00051259  00000+0  12400-2 0  9990
2 58472  97.3979  77.1650 0008017 285.3687  74.6674 15.40933297 60950
STARLINK-30947          
1 58473U 23186A   25004.61385084  .00006991  00000+0  53200-3 0  9990
2 58473  42.9981 239.2522 0001393 269.6995  90.3687 15.02543552 61304
STARLINK-30995          
1 58474U 23186B   25004.51908475  .00039115  00000+0  90856-3 0  9997
2 58474  43.0003 164.4834 0012832 302.6948  57.2671 15.41606058 62303
STARLINK-30941          
1 58475U 23186C   25004.34126850  .00003087  00000+0  24346-3 0  9998
2 58475  43.0040 240.6458 0001441 270.6731  89.3946 15.02543849 61262
STARLINK-30980          
1 58476U 23186D   25004.33794527  .00004095  00000+0  31807-3 0  9990
2 58476  43.0018 240.6200 0001280 274.1671  85.9025 15.02531356 61266
STARLINK-30965          
1 58477U 23186E   25004.62507544  .00008221  00000+0  61491-3 0  9991
2 58477  42.9989 226.3296 0001546 262.0724  97.9943 15.03025751 61459
STARLINK-30990          
1 58478U 23186F   25004.00223124  .00005581  00000+0  42840-3 0  9996
2 58478  42.9998 242.4049 0001487 253.8500 106.2179 15.02492437 61250
STARLINK-30984          
1 58480U 23186H   25004.62037162  .00001882  00000+0  15438-3 0  9995
2 58480  43.0006 238.4342 0001296 282.4154  77.6544 15.02528767 61317
STARLINK-30956          
1 58481U 23186J   25004.57030946  .00024283  00000+0  18064-2 0  9990
2 58481  43.0010 214.5001 0001246 256.5549 103.5154 15.02536046 61545
STARLINK-30997          
1 58482U 23186K   25004.03870626 -.00006805  00000+0 -48892-3 0  9994
2 58482  43.0021 241.7853 0001017 290.5174  69.5559 15.02558202 61226
STARLINK-30994          
1 58483U 23186L   25004.45779607  .00000923  00000+0  45139-4 0  9993
2 58483  43.0013 161.2274 0001420 278.1477  81.9213 15.25901283 62195
STARLINK-30991          
1 58484U 23186M   25004.35113383 -.00000968  00000+0 -56566-4 0  9993
2 58484  43.0008 239.8541 0001279 262.9321  97.1376 15.02541781 61264
STARLINK-30979          
1 58485U 23186N   25003.99554752  .00002305  00000+0  18568-3 0  9996
2 58485  43.0013 242.3491 0001165 252.0662 108.0053 15.02521492 61201
STARLINK-31005          
1 58486U 23186P   25003.92568419  .00008298  00000+0  62766-3 0  9991
2 58486  42.9983 242.6805 0001081 245.3881 114.6849 15.02594337 61195
